*******************************************************************************
Ephemeris / WWW_USER Fri Mar  7 10:41:52 2025 Pasadena, USA      / Horizons    
*******************************************************************************
Target body name: (2018 TB)                       {source: JPL#26}
Center body name: Earth (399)                     {source: DE441}
Center-site name: Mauna Kea
*******************************************************************************
Start time      : A.D. 2019-Jan-19 04:15:00.0000 UT      
Stop  time      : A.D. 2019-Jan-19 16:49:00.0000 UT      
Step-size       : 1 minutes
*******************************************************************************
Target pole/equ : undefined
Target radii    : undefined                                                    
Center geodetic : 204.5278, 19.8260847, 4.21024   {E-lon(deg),Lat(deg),Alt(km)}
Center cylindric: 204.5278, 6006.35451, 2151.0229 {E-lon(deg),Dxy(km),Dz(km)}
Center pole/equ : ITRF93                          {East-longitude positive}
Center radii    : 6378.137, 6378.137, 6356.752 km {Equator_a, b, pole_c}       
Target primary  : Sun
Vis. interferer : MOON (R_eq= 1737.400) km        {source: DE441}
Rel. light bend : Sun                             {source: DE441}
Rel. lght bnd GM: 1.3271E+11 km^3/s^2                                          
Small-body perts: Yes                             {source: SB441-N16}
Atmos refraction: NO (AIRLESS)
RA format       : HMS
Time format     : CAL 
Calendar mode   : Mixed Julian/Gregorian
RTS-only print  : NO       
EOP file        : eop.250306.p250602                                           
EOP coverage    : DATA-BASED 1962-JAN-20 TO 2025-MAR-06. PREDICTS-> 2025-JUN-01
Units conversion: 1 au= 149597870.700 km, c= 299792.458 km/s, 1 day= 86400.0 s 
Table cut-offs 1: Elevation (-90.0deg=NO ),Airmass (>38.000=NO), Daylight (YES)
Table cut-offs 2: Solar elongation (  0.0,180.0=NO ),Local Hour Angle( 0.0=NO )
Table cut-offs 3: RA/DEC angular rate (     0.0=NO )                           
*******************************************************************************
Initial IAU76/J2000 heliocentric ecliptic osculating elements (au, days, deg.):
  EPOCH=  2458410.5 ! 2018-Oct-19.00 (TDB)         Residual RMS= .12604        
   EC= .5817616216321111   QR= 1.001672821897195   TP= 2458383.1822299529      
   OM= 14.42282174156359   W=  341.1556337077549   IN= 3.61300419916586        
  Equivalent ICRF heliocentric cartesian coordinates (au, au/d):
   X= 9.381709462996228E-01  Y= 4.515017153732180E-01  Z= 2.129237315158303E-01
  VX=-5.799214133182419E-03 VY= 1.778204046057418E-02 VZ= 9.138573561666745E-03
Asteroid physical parameters (km, seconds, rotational period in hours):        
   GM= n.a.                RAD= n.a.               ROTPER= n.a.                
   H= 24.89                G= .150                 B-V= n.a.                   
                           ALBEDO= n.a.            STYP= n.a.                  
*******************************************************************************
 Date__(UT)__HR:MN     R.A._________(ICRF)_________DEC
******************************************************
$$SOE
 2019-Jan-19 08:21  m  04 12 17.877937 +27 46 30.57531
 2019-Jan-19 08:22  m  04 12 17.923986 +27 46 30.51856
 2019-Jan-19 08:23  m  04 12 17.970042 +27 46 30.46175
 2019-Jan-19 08:24  m  04 12 18.016104 +27 46 30.40486
 2019-Jan-19 08:25  m  04 12 18.062172 +27 46 30.34791
 2019-Jan-19 08:26  m  04 12 18.108246 +27 46 30.29089
 2019-Jan-19 08:27  m  04 12 18.154326 +27 46 30.23380
 2019-Jan-19 08:28  m  04 12 18.200413 +27 46 30.17664
 2019-Jan-19 08:29  m  04 12 18.246505 +27 46 30.11941
 2019-Jan-19 08:30  m  04 12 18.292604 +27 46 30.06212
 2019-Jan-19 08:31  m  04 12 18.338710 +27 46 30.00476
 2019-Jan-19 08:32  m  04 12 18.384821 +27 46 29.94733
 2019-Jan-19 08:33  m  04 12 18.430939 +27 46 29.88983
 2019-Jan-19 08:34  m  04 12 18.477064 +27 46 29.83226
 2019-Jan-19 08:35  m  04 12 18.523195 +27 46 29.77463
 2019-Jan-19 08:36  m  04 12 18.569333 +27 46 29.71693
 2019-Jan-19 08:37  m  04 12 18.615477 +27 46 29.65916
 2019-Jan-19 08:38  m  04 12 18.661629 +27 46 29.60133
 2019-Jan-19 08:39  m  04 12 18.707786 +27 46 29.54343
 2019-Jan-19 08:40  m  04 12 18.753951 +27 46 29.48546
 2019-Jan-19 08:41  m  04 12 18.800123 +27 46 29.42742
 2019-Jan-19 08:42  m  04 12 18.846301 +27 46 29.36933
 2019-Jan-19 08:43  m  04 12 18.892486 +27 46 29.31116
 2019-Jan-19 08:44  m  04 12 18.938679 +27 46 29.25293
 2019-Jan-19 08:45  m  04 12 18.984878 +27 46 29.19463
 2019-Jan-19 08:46  m  04 12 19.031085 +27 46 29.13627
 2019-Jan-19 08:47  m  04 12 19.077298 +27 46 29.07784
 2019-Jan-19 08:48  m  04 12 19.123519 +27 46 29.01935
 2019-Jan-19 08:49  m  04 12 19.169747 +27 46 28.96079
 2019-Jan-19 08:50  m  04 12 19.215982 +27 46 28.90217
 2019-Jan-19 08:51  m  04 12 19.262225 +27 46 28.84348
 2019-Jan-19 08:52  m  04 12 19.308475 +27 46 28.78473
 2019-Jan-19 08:53  m  04 12 19.354732 +27 46 28.72591
 2019-Jan-19 08:54  m  04 12 19.400997 +27 46 28.66703
 2019-Jan-19 08:55  m  04 12 19.447269 +27 46 28.60809
 2019-Jan-19 08:56  m  04 12 19.493549 +27 46 28.54908
 2019-Jan-19 08:57  m  04 12 19.539837 +27 46 28.49001
 2019-Jan-19 08:58  m  04 12 19.586132 +27 46 28.43088
 2019-Jan-19 08:59  m  04 12 19.632435 +27 46 28.37168
 2019-Jan-19 09:00  m  04 12 19.678745 +27 46 28.31242
 2019-Jan-19 09:01  m  04 12 19.725064 +27 46 28.25310
 2019-Jan-19 09:02  m  04 12 19.771390 +27 46 28.19372
 2019-Jan-19 09:03  m  04 12 19.817724 +27 46 28.13427
 2019-Jan-19 09:04  m  04 12 19.864066 +27 46 28.07476
 2019-Jan-19 09:05  m  04 12 19.910416 +27 46 28.01519
 2019-Jan-19 09:06  m  04 12 19.956774 +27 46 27.95556
 2019-Jan-19 09:07  m  04 12 20.003140 +27 46 27.89587
 2019-Jan-19 09:08  m  04 12 20.049514 +27 46 27.83612
 2019-Jan-19 09:09  m  04 12 20.095896 +27 46 27.77630
 2019-Jan-19 09:10  m  04 12 20.142286 +27 46 27.71643
 2019-Jan-19 09:11  m  04 12 20.188685 +27 46 27.65649
 2019-Jan-19 09:12  m  04 12 20.235092 +27 46 27.59649
 2019-Jan-19 09:13  m  04 12 20.281507 +27 46 27.53644
 2019-Jan-19 09:14  m  04 12 20.327931 +27 46 27.47632
 2019-Jan-19 09:15  m  04 12 20.374363 +27 46 27.41614
 2019-Jan-19 09:16  m  04 12 20.420803 +27 46 27.35591
 2019-Jan-19 09:17  m  04 12 20.467252 +27 46 27.29561
 2019-Jan-19 09:18  m  04 12 20.513710 +27 46 27.23526
 2019-Jan-19 09:19  m  04 12 20.560176 +27 46 27.17485
 2019-Jan-19 09:20  m  04 12 20.606650 +27 46 27.11438
 2019-Jan-19 09:21  m  04 12 20.653134 +27 46 27.05385
 2019-Jan-19 09:22  m  04 12 20.699626 +27 46 26.99326
 2019-Jan-19 09:23  m  04 12 20.746127 +27 46 26.93261
 2019-Jan-19 09:24  m  04 12 20.792636 +27 46 26.87191
 2019-Jan-19 09:25  m  04 12 20.839155 +27 46 26.81115
 2019-Jan-19 09:26  m  04 12 20.885682 +27 46 26.75033
 2019-Jan-19 09:27  m  04 12 20.932218 +27 46 26.68946
 2019-Jan-19 09:28  m  04 12 20.978764 +27 46 26.62853
 2019-Jan-19 09:29  m  04 12 21.025318 +27 46 26.56754
 2019-Jan-19 09:30  m  04 12 21.071881 +27 46 26.50649
 2019-Jan-19 09:31  m  04 12 21.118453 +27 46 26.44539
 2019-Jan-19 09:32  m  04 12 21.165035 +27 46 26.38424
 2019-Jan-19 09:33  m  04 12 21.211625 +27 46 26.32303
 2019-Jan-19 09:34  m  04 12 21.258225 +27 46 26.26176
 2019-Jan-19 09:35  m  04 12 21.304834 +27 46 26.20044
 2019-Jan-19 09:36  m  04 12 21.351453 +27 46 26.13906
 2019-Jan-19 09:37  m  04 12 21.398080 +27 46 26.07763
 2019-Jan-19 09:38  m  04 12 21.444717 +27 46 26.01614
 2019-Jan-19 09:39  m  04 12 21.491364 +27 46 25.95460
 2019-Jan-19 09:40  m  04 12 21.538020 +27 46 25.89301
 2019-Jan-19 09:41  m  04 12 21.584685 +27 46 25.83136
 2019-Jan-19 09:42  m  04 12 21.631360 +27 46 25.76966
 2019-Jan-19 09:43  m  04 12 21.678044 +27 46 25.70791
 2019-Jan-19 09:44  m  04 12 21.724739 +27 46 25.64610
 2019-Jan-19 09:45  m  04 12 21.771442 +27 46 25.58424
 2019-Jan-19 09:46  m  04 12 21.818156 +27 46 25.52233
 2019-Jan-19 09:47  m  04 12 21.864879 +27 46 25.46036
 2019-Jan-19 09:48  m  04 12 21.911612 +27 46 25.39835
 2019-Jan-19 09:49  m  04 12 21.958354 +27 46 25.33628
 2019-Jan-19 09:50  m  04 12 22.005107 +27 46 25.27416
 2019-Jan-19 09:51  m  04 12 22.051869 +27 46 25.21199
 2019-Jan-19 09:52  m  04 12 22.098641 +27 46 25.14977
 2019-Jan-19 09:53  m  04 12 22.145424 +27 46 25.08749
 2019-Jan-19 09:54  m  04 12 22.192216 +27 46 25.02517
 2019-Jan-19 09:55  m  04 12 22.239018 +27 46 24.96280
 2019-Jan-19 09:56  m  04 12 22.285830 +27 46 24.90038
 2019-Jan-19 09:57  m  04 12 22.332653 +27 46 24.83791
 2019-Jan-19 09:58  m  04 12 22.379485 +27 46 24.77538
 2019-Jan-19 09:59  m  04 12 22.426328 +27 46 24.71281
 2019-Jan-19 10:00  m  04 12 22.473181 +27 46 24.65020
 2019-Jan-19 10:01  m  04 12 22.520044 +27 46 24.58753
 2019-Jan-19 10:02  m  04 12 22.566917 +27 46 24.52481
 2019-Jan-19 10:03  m  04 12 22.613801 +27 46 24.46205
 2019-Jan-19 10:04  m  04 12 22.660695 +27 46 24.39924
 2019-Jan-19 10:05  m  04 12 22.707599 +27 46 24.33638
 2019-Jan-19 10:06  m  04 12 22.754514 +27 46 24.27347
 2019-Jan-19 10:07  m  04 12 22.801439 +27 46 24.21052
 2019-Jan-19 10:08  m  04 12 22.848375 +27 46 24.14752
 2019-Jan-19 10:09  m  04 12 22.895321 +27 46 24.08447
 2019-Jan-19 10:10  m  04 12 22.942278 +27 46 24.02138
 2019-Jan-19 10:11  m  04 12 22.989245 +27 46 23.95824
 2019-Jan-19 10:12  m  04 12 23.036223 +27 46 23.89506
 2019-Jan-19 10:13  m  04 12 23.083212 +27 46 23.83183
 2019-Jan-19 10:14  m  04 12 23.130211 +27 46 23.76856
 2019-Jan-19 10:15  m  04 12 23.177222 +27 46 23.70524
 2019-Jan-19 10:16  m  04 12 23.224242 +27 46 23.64187
 2019-Jan-19 10:17  m  04 12 23.271274 +27 46 23.57847
 2019-Jan-19 10:18  m  04 12 23.318316 +27 46 23.51502
 2019-Jan-19 10:19  m  04 12 23.365370 +27 46 23.45152
 2019-Jan-19 10:20  m  04 12 23.412434 +27 46 23.38798
 2019-Jan-19 10:21  m  04 12 23.459509 +27 46 23.32440
 2019-Jan-19 10:22  m  04 12 23.506595 +27 46 23.26078
 2019-Jan-19 10:23  m  04 12 23.553692 +27 46 23.19711
